INTELSAT 21 (IS-21)     
1 38749U 12045A   26166.46145168 -.00000282  00000+0  00000+0 0  9990
2 38749   0.0181 337.3917 0001258 124.0903 270.3882  1.00270663 50506
INTELSAT 23 (IS-23)     
1 38867U 12057A   26166.42497684 -.00000282  00000+0  00000+0 0  9993
2 38867   0.0092  11.5076 0000352  68.7984 283.4031  1.00274177 49932
FM-6                    
1 39360U 13058A   26166.34447057  .00000000  00000+0  00000+0 0  9991
2 39360   0.0275  33.5220 0002659 135.8142 101.9067  1.00260139 46059
INTELSAT 30 (IS-30)     
1 40271U 14062A   26166.45408498 -.00000149  00000+0  00000+0 0  9993
2 40271   0.0229  41.2459 0001444 345.3507 305.5671  1.00276088  6773
DIRECTV 14              
1 40333U 14078B   26166.38289572 -.00000122  00000+0  00000+0 0  9992
2 40333   0.0133  23.6782 0000331 263.2070  15.3817  1.00272172 42022
DIRECTV 15              
1 40663U 15026A   26166.27754484 -.00000100  00000+0  00000+0 0  9995
2 40663   0.0162  20.7674 0000278 308.0997 291.7459  1.00276521 40442
SKY MEXICO-1            
1 40664U 15026B   26166.45729166 -.00000231  00000+0  00000+0 0  9990
2 40664   0.0174 358.4859 0001982 107.5996 243.4824  1.00270557 40438
INTELSAT 34 (IS-34)     
1 40874U 15039A   26166.46188500 -.00000283  00000+0  00000+0 0  9996
2 40874   0.0113 328.2513 0000565   9.4719  36.8219  1.00272990 39618
INTELSAT 31 (IS-31)     
1 41581U 16035A   26166.45408498 -.00000148  00000+0  00000+0 0  9999
2 41581   0.0218 268.0975 0000990 343.3116  80.7557  1.00273573 36669
INTELSAT 36 (IS-36)     
1 41747U 16053A   26166.48650425 -.00000022  00000+0  00000+0 0  9996
2 41747   0.0105 352.4669 0002181 338.7438 176.1996  1.00271041 35940
INTELSAT 32E (IS-32E)   
1 41945U 17007B   26166.46439836 -.00000266  00000+0  00000+0 0  9995
2 41945   0.0089 318.9259 0001175   8.2894  60.5429  1.00266766 34203
INTELSAT 35E (IS-35E)   
1 42818U 17041A   26166.46604502 -.00000235  00000+0  00000+0 0  9993
2 42818   0.0155 316.3305 0001590 122.6631 318.0353  1.00269221 32790
INTELSAT 37E (IS-37E)   
1 42950U 17059A   26166.39790821 -.00000137  00000+0  00000+0 0  9992
2 42950   0.0184  20.8353 0002330  85.6069 282.5015  1.00271794 32041
AZERSPACE 2 (IS-38)     
1 43632U 18074A   26166.48182421  .00000139  00000+0  00000+0 0  9990
2 43632   0.0085 316.4310 0001187 126.2680  39.6323  1.00269834 28439
HORIZONS-3E             
1 43633U 18074B   26165.65084600 -.00000024  00000+0  00000+0 0  9993
2 43633   0.0187 163.9480 0000966 106.2603  36.0409  1.00270601 28310
AT&T T-16               
1 44333U 19034A   26166.45295830 -.00000112  00000+0  00000+0 0  9994
2 44333   0.0161  51.8914 0000795 224.3999  49.6565  1.00268839 25610
INTELSAT 39 (IS-39)     
1 44476U 19049B   26166.48520424  .00000036  00000+0  00000+0 0  9995
2 44476   0.0009   5.7459 0000939 308.1942 186.4495  1.00270578 25110
GALAXY 30 (G-30)        
1 46114U 20056C   26166.47405839  .00000040  00000+0  00000+0 0  9992
2 46114   0.0176   9.2830 0002078  75.6246 224.5068  1.00270776 21270
GALAXY 33 (G-33)        
1 54026U 22128A   26166.35073287  .00000082  00000+0  00000+0 0  9996
2 54026   0.0140 357.0234 0001590  89.8598 170.0213  1.00271346 13721
GALAXY 34 (G-34)        
1 54027U 22128B   26166.43292887  .00000062  00000+0  00000+0 0  9993
2 54027   0.0143   1.4348 0001306 100.9908 188.1417  1.00270663 13891
GALAXY 31 (G-31)        
1 54243U 22153A   26166.44897161  .00000000  00000+0  00000+0 0  9990
2 54243   0.0203  28.9896 0001009  47.0719 228.2922  1.00270248  7115
GALAXY 32 (G-32)        
1 54244U 22153B   26165.95583885 -.00000197  00000+0  00000+0 0  9999
2 54244   0.0165 349.6788 0015287 254.3091 272.5395  1.00491998 13126
GALAXY 35 (G-35)        
1 54741U 22170A   26166.45443163  .00000000  00000+0  00000+0 0  9992
2 54741   0.0197  15.4665 0001806  70.8835 247.8768  1.00268931 12873
GALAXY 36 (G-36)        
1 54742U 22170B   26166.45529830 -.00000182  00000+0  00000+0 0  9991
2 54742   0.0224 251.9031 0002528 192.6262 254.1218  1.00271108 12756
GALAXY 37 (G-37)        
1 57493U 23112A   26166.47405839  .00000051  00000+0  00000+0 0  9992
2 57493   0.0238  61.2120 0001707  20.2986 225.9055  1.00271380 10525
